QZS-1R                  
1 49336U 21096A   24292.80121185 -.00000221  00000+0  00000+0 0  9992
2 49336  36.2016  88.6556 0746449 270.2562  93.0828  1.00279476 10929
